{
  "type": "FeatureCollection",
  "features": [
    {
      "type": "Feature",
      "properties": {
        "norad_id": 66588,
        "name": "STARLINK-36076",
        "group": "last-30-days",
        "lat": -20.348059218293212,
        "lon": -11.041357908820956,
        "alt_km": 445.26069241376626,
        "timestamp": "2025-12-20T22:39:09.405629+00:00",
        "meta_object_name": "STARLINK-36076",
        "meta_object_id": "2025-270A",
        "meta_epoch": "2025-12-20T10:51:06.427872",
        "meta_mean_motion": 15.40725228,
        "meta_eccentricity": 0.0001738,
        "meta_inclination": 42.9989,
        "meta_ra_of_asc_node": 148.3397,
        "meta_arg_of_pericenter": 266.7837,
        "meta_mean_anomaly": 93.2821,
        "meta_ephemeris_type": 0,
        "meta_classification_type": "U",
        "meta_norad_cat_id": 66588,
        "meta_element_set_no": 999,
        "meta_rev_at_epoch": 553,
        "meta_bstar": 0.00073508724,
        "meta_mean_motion_dot": 0.00030552,
        "meta_mean_motion_ddot": 0,
        "tle_line1": "1 66588U 25270A   25354.45215773  .00030552  00000+0  73509-3 0  9993",
        "tle_line2": "2 66588  42.9989 148.3397 0001738 266.7837  93.2821 15.40725228  5533"
      },
      "geometry": {
        "type": "Point",
        "coordinates": [
          -11.041357908820956,
          -20.348059218293212
        ]
      }
    },
    {
      "type": "Feature",
      "properties": {
        "norad_id": 66589,
        "name": "STARLINK-35447",
        "group": "last-30-days",
        "lat": -31.451699863318296,
        "lon": 104.2406470937897,
        "alt_km": 445.7753934660004,
        "timestamp": "2025-12-20T22:39:09.405639+00:00",
        "meta_object_name": "STARLINK-35447",
        "meta_object_id": "2025-270B",
        "meta_epoch": "2025-12-20T13:32:00.344832",
        "meta_mean_motion": 15.40728123,
        "meta_eccentricity": 0.00015088,
        "meta_inclination": 42.9997,
        "meta_ra_of_asc_node": 147.4551,
        "meta_arg_of_pericenter": 283.3552,
        "meta_mean_anomaly": 76.7136,
        "meta_ephemeris_type": 0,
        "meta_classification_type": "U",
        "meta_norad_cat_id": 66589,
        "meta_element_set_no": 999,
        "meta_rev_at_epoch": 566,
        "meta_bstar": 0.00048417387,
        "meta_mean_motion_dot": 0.00019993,
        "meta_mean_motion_ddot": 0,
        "tle_line1": "1 66589U 25270B   25354.56389288  .00019993  00000+0  48417-3 0  9995",
        "tle_line2": "2 66589  42.9997 147.4551 0001508 283.3552  76.7136 15.40728123  5665"
      },
      "geometry": {
        "type": "Point",
        "coordinates": [
          104.2406470937897,
          -31.451699863318296
        ]
      }
    },
    {
      "type": "Feature",
      "properties": {
        "norad_id": 66590,
        "name": "STARLINK-35429",
        "group": "last-30-days",
        "lat": 24.2625422109886,
        "lon": 173.98095635772373,
        "alt_km": 440.70565962722776,
        "timestamp": "2025-12-20T22:39:09.405648+00:00",
        "meta_object_name": "STARLINK-35429",
        "meta_object_id": "2025-270C",
        "meta_epoch": "2025-12-20T14:00:03.000384",
        "meta_mean_motion": 15.40701655,
        "meta_eccentricity": 0.00015817,
        "meta_inclination": 43.0002,
        "meta_ra_of_asc_node": 147.1322,
        "meta_arg_of_pericenter": 276.7058,
        "meta_mean_anomaly": 278.5636,
        "meta_ephemeris_type": 0,
        "meta_classification_type": "U",
        "meta_norad_cat_id": 66590,
        "meta_element_set_no": 999,
        "meta_rev_at_epoch": 576,
        "meta_bstar": -4.1668703e-05,
        "meta_mean_motion_dot": -2.044e-05,
        "meta_mean_motion_ddot": 0,
        "tle_line1": "1 66590U 25270C   25354.58336806 -.00002044  00000+0 -41669-4 0  9991",
        "tle_line2": "2 66590  43.0002 147.1322 0001581 276.7058 278.5636 15.40701655  5766"
      },
      "geometry": {
        "type": "Point",
        "coordinates": [
          173.98095635772373,
          24.2625422109886
        ]
      }
    },
    {
      "type": "Feature",
      "properties": {
        "norad_id": 66591,
        "name": "STARLINK-36058",
        "group": "last-30-days",
        "lat": 34.281036085776115,
        "lon": -82.17073543355795,
        "alt_km": 439.75146860763107,
        "timestamp": "2025-12-20T22:39:09.405659+00:00",
        "meta_object_name": "STARLINK-36058",
        "meta_object_id": "2025-270D",
        "meta_epoch": "2025-12-20T14:00:03.000384",
        "meta_mean_motion": 15.42326684,
        "meta_eccentricity": 8.735e-05,
        "meta_inclination": 42.9995,
        "meta_ra_of_asc_node": 146.9244,
        "meta_arg_of_pericenter": 298.7233,
        "meta_mean_anomaly": 342.7029,
        "meta_ephemeris_type": 0,
        "meta_classification_type": "U",
        "meta_norad_cat_id": 66591,
        "meta_element_set_no": 999,
        "meta_rev_at_epoch": 566,
        "meta_bstar": -0.05641924,
        "meta_mean_motion_dot": -0.0223072,
        "meta_mean_motion_ddot": 0,
        "tle_line1": "1 66591U 25270D   25354.58336806 -.02230720  00000+0 -56419-1 0  9994",
        "tle_line2": "2 66591  42.9995 146.9244 0000873 298.7233 342.7029 15.42326684  5664"
      },
      "geometry": {
        "type": "Point",
        "coordinates": [
          -82.17073543355795,
          34.281036085776115
        ]
      }
    },
    {
      "type": "Feature",
      "properties": {
        "norad_id": 66592,
        "name": "STARLINK-36066",
        "group": "last-30-days",
        "lat": -42.293706392539576,
        "lon": 42.880511367269406,
        "alt_km": 446.22149351476946,
        "timestamp": "2025-12-20T22:39:09.405669+00:00",
        "meta_object_name": "STARLINK-36066",
        "meta_object_id": "2025-270E",
        "meta_epoch": "2025-12-19T03:31:08.236704",
        "meta_mean_motion": 15.40718174,
        "meta_eccentricity": 0.00012951,
        "meta_inclination": 42.9987,
        "meta_ra_of_asc_node": 155.7395,
        "meta_arg_of_pericenter": 272.062,
        "meta_mean_anomaly": 88.0088,
        "meta_ephemeris_type": 0,
        "meta_classification_type": "U",
        "meta_norad_cat_id": 66592,
        "meta_element_set_no": 999,
        "meta_rev_at_epoch": 523,
        "meta_bstar": 0.00069686524,
        "meta_mean_motion_dot": 0.00028934,
        "meta_mean_motion_ddot": 0,
        "tle_line1": "1 66592U 25270E   25353.14662311  .00028934  00000+0  69687-3 0  9990",
        "tle_line2": "2 66592  42.9987 155.7395 0001295 272.0620  88.0088 15.40718174  5230"
      },
      "geometry": {
        "type": "Point",
        "coordinates": [
          42.880511367269406,
          -42.293706392539576
        ]
      }
    },
    {
      "type": "Feature",
      "properties": {
        "norad_id": 66593,
        "name": "STARLINK-36031",
        "group": "last-30-days",
        "lat": -8.575378208973323,
        "lon": 135.85935520256035,
        "alt_km": 444.3049344035917,
        "timestamp": "2025-12-20T22:39:09.405678+00:00",
        "meta_object_name": "STARLINK-36031",
        "meta_object_id": "2025-270F",
        "meta_epoch": "2025-12-20T00:00:02.000160",
        "meta_mean_motion": 15.4068271,
        "meta_eccentricity": 0.0001727,
        "meta_inclination": 42.9996,
        "meta_ra_of_asc_node": 150.6127,
        "meta_arg_of_pericenter": 270.7135,
        "meta_mean_anomaly": 235.4296,
        "meta_ephemeris_type": 0,
        "meta_classification_type": "U",
        "meta_norad_cat_id": 66593,
        "meta_element_set_no": 999,
        "meta_rev_at_epoch": 556,
        "meta_bstar": 0.0009194,
        "meta_mean_motion_dot": 0.00038273,
        "meta_mean_motion_ddot": 0,
        "tle_line1": "1 66593U 25270F   25354.00002315  .00038273  00000+0  91940-3 0  9993",
        "tle_line2": "2 66593  42.9996 150.6127 0001727 270.7135 235.4296 15.40682710  5565"
      },
      "geometry": {
        "type": "Point",
        "coordinates": [
          135.85935520256035,
          -8.575378208973323
        ]
      }
    },
    {
      "type": "Feature",
      "properties": {
        "norad_id": 66594,
        "name": "STARLINK-36032",
        "group": "last-30-days",
        "lat": 42.89440735536247,
        "lon": -129.4849446921721,
        "alt_km": 438.21545367456656,
        "timestamp": "2025-12-20T22:39:09.405687+00:00",
        "meta_object_name": "STARLINK-36032",
        "meta_object_id": "2025-270G",
        "meta_epoch": "2025-12-20T14:00:03.000384",
        "meta_mean_motion": 15.40691488,
        "meta_eccentricity": 0.00014543,
        "meta_inclination": 42.9997,
        "meta_ra_of_asc_node": 147.0107,
        "meta_arg_of_pericenter": 249.5142,
        "meta_mean_anomaly": 355.4246,
        "meta_ephemeris_type": 0,
        "meta_classification_type": "U",
        "meta_norad_cat_id": 66594,
        "meta_element_set_no": 999,
        "meta_rev_at_epoch": 539,
        "meta_bstar": 2.266473e-05,
        "meta_mean_motion_dot": 6.43e-06,
        "meta_mean_motion_ddot": 0,
        "tle_line1": "1 66594U 25270G   25354.58336806  .00000643  00000+0  22665-4 0  9991",
        "tle_line2": "2 66594  42.9997 147.0107 0001454 249.5142 355.4246 15.40691488  5395"
      },
      "geometry": {
        "type": "Point",
        "coordinates": [
          -129.4849446921721,
          42.89440735536247
        ]
      }
    }
  ]
}